FENGYUN 3D              
1 43010U 17072A   26167.58356204 -.00000342  00000+0 -13968-3 0  9990
2 43010  99.0121 141.9950 0002594  63.5618 296.5823 14.19737855444906
NOAA 20 (JPSS-1)        
1 43013U 17073A   26167.57841601  .00000057  00000+0  48098-4 0  9997
2 43013  98.7771 107.0465 0000290  92.0503 268.0706 14.19511638444386
GOES 17                 
1 43226U 18022A   26167.49030681 -.00000184  00000+0  00000+0 0  9995
2 43226   0.9359  85.7218 0000417  33.9282 232.1109  1.00269768 30410
SENTINEL-3B             
1 43437U 18039A   26167.41827835  .00000074  00000+0  48773-4 0  9995
2 43437  98.6250 234.9616 0000731  87.3639 272.7625 14.26734457424016
FENGYUN 2H              
1 43491U 18050A   26167.62929487 -.00000134  00000+0  00000+0 0  9991
2 43491   3.0294  79.0749 0001972 138.2793 353.4963  1.00269613 29438
METOP-C                 
1 43689U 18087A   26167.57533534  .00000093  00000+0  62465-4 0  9999
2 43689  98.6645 227.1901 0001744 130.2942 229.8389 14.21512009394742
GEO-KOMPSAT-2A          
1 43823U 18100A   26167.59710065 -.00000346  00000+0  00000+0 0  9997
2 43823   0.0523 116.1629 0001801 330.5210 161.4031  1.00270780 27620
METEOR-M2 2             
1 44387U 19038A   26167.61245756 -.00000207  00000+0 -69880-4 0  9990
2 44387  98.9137 154.8893 0002111  48.4790 311.6569 14.24364866361218
ARKTIKA-M 1             
1 47719U 21016A   26165.99849030 -.00000233  00000+0  00000+0 0  9997
2 47719  63.2382  57.9810 7287766 269.9259  14.6142  2.00623319 38745
FENGYUN 3E              
1 49008U 21062A   26167.63796135  .00000144  00000+0  88578-4 0  9992
2 49008  98.7484 171.0518 0002817  86.6923 273.4575 14.19904397256506
GOES 18                 
1 51850U 22021A   26167.51516834  .00000095  00000+0  00000+0 0  9993
2 51850   0.0335 137.8476 0000297  22.7034 152.6859  1.00270407  6580
NOAA 21 (JPSS-2)        
1 54234U 22150A   26167.54085573  .00000037  00000+0  38384-4 0  9996
2 54234  98.7059 106.3410 0001622 155.5454 204.5800 14.19565369186455
METEOSAT-12 (MTG-I1)    
1 54743U 22170C   26167.11442372 -.00000009  00000+0  00000+0 0  9999
2 54743   0.7370  22.7991 0003143  71.6629 210.7035  1.00272351 12961
TIANMU-1 03             
1 55973U 23039A   26167.66214567  .00012293  00000+0  24297-3 0  9998
2 55973  97.5227 341.6104 0004227 100.2882 259.8845 15.47270872180753
TIANMU-1 04             
1 55974U 23039B   26167.58717757  .00012330  00000+0  23872-3 0  9999
2 55974  97.5164 340.6863 0004859  97.3683 262.8119 15.47866888180757
TIANMU-1 05             
1 55975U 23039C   26167.57820883  .00012335  00000+0  24442-3 0  9993
2 55975  97.5212 341.1380 0003970 116.4566 243.7091 15.47196998180720
TIANMU-1 06             
1 55976U 23039D   26167.65517015  .00012378  00000+0  24043-3 0  9997
2 55976  97.5217 341.8535 0004364 111.9255 248.2459 15.47772704180765
FENGYUN 3G              
1 56232U 23055A   26167.59161332  .00019767  00000+0  32150-3 0  9998
2 56232  49.9934 349.0901 0006971 293.9142  66.1095 15.52605151179912
METEOR-M2 3             
1 57166U 23091A   26167.60663549  .00000006  00000+0  21337-4 0  9996
2 57166  98.6090 222.5968 0004322 156.9353 203.2021 14.24046773154431
TIANMU-1 07             
1 57399U 23101A   26167.64226404  .00005168  00000+0  18159-3 0  9996
2 57399  97.2590 218.3231 0004063 122.5965 237.5668 15.29802721161563
TIANMU-1 08             
1 57400U 23101B   26167.60890762  .00005146  00000+0  18079-3 0  9996
2 57400  97.2578 218.0613 0005556 116.3973 243.7839 15.29806978161557
TIANMU-1 09             
1 57401U 23101C   26167.59233391  .00005310  00000+0  18629-3 0  9998
2 57401  97.2536 217.4611 0004527 128.1547 232.0103 15.29837800161551
TIANMU-1 10             
1 57402U 23101D   26167.55996422  .00005443  00000+0  19104-3 0  9992
2 57402  97.2616 218.4794 0006137 127.6594 232.5205 15.29808926161543
FENGYUN 3F              
1 57490U 23111A   26167.55142677  .00000036  00000+0  37345-4 0  9996
2 57490  98.6835 237.5720 0001590  93.8515 266.2843 14.19939007148779
ARKTIKA-M 2             
1 58584U 23198A   26160.78386103  .00000212  00000+0  00000+0 0  9997
2 58584  63.2205 155.1874 6900401 267.4353  18.7899  2.00606537 18179
TIANMU-1 11             
1 58645U 23205A   26167.59479168  .00004618  00000+0  17689-3 0  9993
2 58645  97.3440 189.1610 0009039  19.1666 340.9912 15.26990918137439
TIANMU-1 12             
1 58646U 23205B   26167.56514258  .00004611  00000+0  17690-3 0  9996
2 58646  97.3430 188.8876 0006814   5.9638 354.1681 15.26955006137416
TIANMU-1 13             
1 58647U 23205C   26167.59726421  .00004636  00000+0  17867-3 0  9990
2 58647  97.3457 189.1918 0005971 343.9675  16.1374 15.26808738137419
TIANMU-1 14             
1 58648U 23205D   26167.64802407  .00004649  00000+0  17889-3 0  9994
2 58648  97.3392 188.4239 0006945 347.6530  12.4538 15.26853997137428
TIANMU-1 19             
1 58660U 23208A   26167.56828766  .00006524  00000+0  21658-3 0  9991
2 58660  97.4510 283.8644 0003874 330.9982  29.1044 15.31566000137237
