OBJECT_NAME,OBJECT_ID,EPOCH,MEAN_MOTION,ECCENTRICITY,INCLINATION,RA_OF_ASC_NODE,ARG_OF_PERICENTER,MEAN_ANOMALY,EPHEMERIS_TYPE,CLASSIFICATION_TYPE,NORAD_CAT_ID,ELEMENT_SET_NO,REV_AT_EPOCH,BSTAR,MEAN_MOTION_DOT,MEAN_MOTION_DDOT
FENGYUN 3D,2017-072A,2026-06-16T14:00:19.760256,14.19737855,.00025945,99.0121,141.9950,63.5618,296.5823,0,U,43010,999,44490,-.13967646E-3,-.342E-5,0
NOAA 20 (JPSS-1),2017-073A,2026-06-16T13:52:55.143264,14.19511638,.000029,98.7771,107.0465,92.0503,268.0706,0,U,43013,999,44438,.48098106E-4,.57E-6,0
GOES 17,2018-022A,2026-06-16T11:46:02.508384,1.00269768,.00004177,0.9359,85.7218,33.9282,232.1109,0,U,43226,999,3041,0,-.184E-5,0
SENTINEL-3B,2018-039A,2026-06-16T10:02:19.249440,14.26734457,.00007314,98.6250,234.9616,87.3639,272.7625,0,U,43437,999,42401,.48773229E-4,.74E-6,0
FENGYUN 2H,2018-050A,2026-06-16T15:06:11.076768,1.00269613,.00019725,3.0294,79.0749,138.2793,353.4963,0,U,43491,999,2943,0,-.134E-5,0
METOP-C,2018-087A,2026-06-16T13:48:28.973376,14.21512009,.00017449,98.6645,227.1901,130.2942,229.8389,0,U,43689,999,39474,.62464822E-4,.93E-6,0
GEO-KOMPSAT-2A,2018-100A,2026-06-16T14:19:49.496160,1.00270780,.00018017,0.0523,116.1629,330.5210,161.4031,0,U,43823,999,2762,0,-.346E-5,0
METEOR-M2 2,2019-038A,2026-06-16T14:41:56.333184,14.24364866,.0002111,98.9137,154.8893,48.4790,311.6569,0,U,44387,999,36121,-.69880108E-4,-.207E-5,0
ARKTIKA-M 1,2021-016A,2026-06-14T23:57:49.561920,2.00623319,.72877661,63.2382,57.9810,269.9259,14.6142,0,U,47719,999,3874,0,-.233E-5,0
FENGYUN 3E,2021-062A,2026-06-16T15:18:39.860640,14.19904397,.00028175,98.7484,171.0518,86.6923,273.4575,0,U,49008,999,25650,.88578347E-4,.144E-5,0
GOES 18,2022-021A,2026-06-16T12:21:50.544576,1.00270407,.00002971,0.0335,137.8476,22.7034,152.6859,0,U,51850,999,658,0,.95E-6,0
NOAA 21 (JPSS-2),2022-150A,2026-06-16T12:58:49.935072,14.19565369,.00016228,98.7059,106.3410,155.5454,204.5800,0,U,54234,999,18645,.38384445E-4,.37E-6,0
METEOSAT-12 (MTG-I1),2022-170C,2026-06-16T02:44:46.209408,1.00272351,.00031434,0.7370,22.7991,71.6629,210.7035,0,U,54743,999,1296,0,-.9E-7,0
TIANMU-1 03,2023-039A,2026-06-16T15:53:29.385888,15.47270872,.00042271,97.5227,341.6104,100.2882,259.8845,0,U,55973,999,18075,.24296726E-3,.12293E-3,0
TIANMU-1 04,2023-039B,2026-06-16T14:05:32.142048,15.47866888,.00048591,97.5164,340.6863,97.3683,262.8119,0,U,55974,999,18075,.23872229E-3,.1233E-3,0
TIANMU-1 05,2023-039C,2026-06-16T13:52:37.242912,15.47196998,.000397,97.5212,341.1380,116.4566,243.7091,0,U,55975,999,18072,.24441683E-3,.12335E-3,0
TIANMU-1 06,2023-039D,2026-06-16T15:43:26.700960,15.47772704,.00043644,97.5217,341.8535,111.9255,248.2459,0,U,55976,999,18076,.24043017E-3,.12378E-3,0
FENGYUN 3G,2023-055A,2026-06-16T14:11:55.390848,15.52605151,.00069716,49.9934,349.0901,293.9142,66.1095,0,U,56232,999,17991,.32150174E-3,.19767E-3,0
METEOR-M2 3,2023-091A,2026-06-16T14:33:33.306336,14.24046773,.00043223,98.6090,222.5968,156.9353,203.2021,0,U,57166,999,15443,.21337042E-4,.6E-7,0
TIANMU-1 07,2023-101A,2026-06-16T15:24:51.613056,15.29802721,.00040631,97.2590,218.3231,122.5965,237.5668,0,U,57399,999,16156,.18158862E-3,.5168E-4,0
TIANMU-1 08,2023-101B,2026-06-16T14:36:49.618368,15.29806978,.00055561,97.2578,218.0613,116.3973,243.7839,0,U,57400,999,16155,.18078511E-3,.5146E-4,0
TIANMU-1 09,2023-101C,2026-06-16T14:12:57.649824,15.29837800,.00045274,97.2536,217.4611,128.1547,232.0103,0,U,57401,999,16155,.18629061E-3,.531E-4,0
TIANMU-1 10,2023-101D,2026-06-16T13:26:20.908608,15.29808926,.00061376,97.2616,218.4794,127.6594,232.5205,0,U,57402,999,16154,.19103964E-3,.5443E-4,0
FENGYUN 3F,2023-111A,2026-06-16T13:14:03.272928,14.19939007,.00015903,98.6835,237.5720,93.8515,266.2843,0,U,57490,999,14877,.37345353E-4,.36E-6,0
ARKTIKA-M 2,2023-198A,2026-06-09T18:48:45.592992,2.00606537,.69004015,63.2205,155.1874,267.4353,18.7899,0,U,58584,999,1817,0,.212E-5,0
TIANMU-1 11,2023-205A,2026-06-16T14:16:30.001152,15.26990918,.0009039,97.3440,189.1610,19.1666,340.9912,0,U,58645,999,13743,.17689399E-3,.4618E-4,0
TIANMU-1 12,2023-205B,2026-06-16T13:33:48.318912,15.26955006,.00068145,97.3430,188.8876,5.9638,354.1681,0,U,58646,999,13741,.17690491E-3,.4611E-4,0
TIANMU-1 13,2023-205C,2026-06-16T14:20:03.627744,15.26808738,.00059719,97.3457,189.1918,343.9675,16.1374,0,U,58647,999,13741,.1786743E-3,.4636E-4,0
TIANMU-1 14,2023-205D,2026-06-16T15:33:09.279648,15.26853997,.0006945,97.3392,188.4239,347.6530,12.4538,0,U,58648,999,13742,.17888654E-3,.4649E-4,0
TIANMU-1 19,2023-208A,2026-06-16T13:38:20.053824,15.31566000,.00038746,97.4510,283.8644,330.9982,29.1044,0,U,58660,999,13723,.21657548E-3,.6524E-4,0
